{
  "type": "FeatureCollection",
  "features": [
    {
      "type": "Feature",
      "properties": {
        "norad_id": 29486,
        "name": "GPS BIIRM-2 (PRN 31)",
        "group": "gps-ops",
        "lat": -49.07120311080362,
        "lon": 33.62160910408684,
        "alt_km": 20462.510890512865,
        "timestamp": "2025-12-11T08:58:27.381994+00:00",
        "meta_object_name": "GPS BIIRM-2 (PRN 31)",
        "meta_object_id": "2006-042A",
        "meta_epoch": "2025-12-10T18:35:54.518784",
        "meta_mean_motion": 2.00554204,
        "meta_eccentricity": 0.010736,
        "meta_inclination": 54.6939,
        "meta_ra_of_asc_node": 158.8186,
        "meta_arg_of_pericenter": 51.9152,
        "meta_mean_anomaly": 123.7475,
        "meta_ephemeris_type": 0,
        "meta_classification_type": "U",
        "meta_norad_cat_id": 29486,
        "meta_element_set_no": 999,
        "meta_rev_at_epoch": 14061,
        "meta_bstar": 0,
        "meta_mean_motion_dot": 8e-07,
        "meta_mean_motion_ddot": 0,
        "tle_line1": "1 29486U 06042A   25344.77493656  .00000080  00000+0  00000+0 0  9992",
        "tle_line2": "2 29486  54.6939 158.8186 0107360  51.9152 123.7475  2.00554204140617"
      },
      "geometry": {
        "type": "Point",
        "coordinates": [
          33.62160910408684,
          -49.07120311080362
        ]
      }
    },
    {
      "type": "Feature",
      "properties": {
        "norad_id": 29601,
        "name": "GPS BIIRM-3 (PRN 12)",
        "group": "gps-ops",
        "lat": -42.108224833270064,
        "lon": -177.8498305184776,
        "alt_km": 20369.933130597892,
        "timestamp": "2025-12-11T08:58:27.382006+00:00",
        "meta_object_name": "GPS BIIRM-3 (PRN 12)",
        "meta_object_id": "2006-052A",
        "meta_epoch": "2025-12-09T22:55:07.366368",
        "meta_mean_motion": 2.00573319,
        "meta_eccentricity": 0.00877524,
        "meta_inclination": 54.9712,
        "meta_ra_of_asc_node": 221.5087,
        "meta_arg_of_pericenter": 87.406,
        "meta_mean_anomaly": 273.6761,
        "meta_ephemeris_type": 0,
        "meta_classification_type": "U",
        "meta_norad_cat_id": 29601,
        "meta_element_set_no": 999,
        "meta_rev_at_epoch": 13961,
        "meta_bstar": 0,
        "meta_mean_motion_dot": 3e-08,
        "meta_mean_motion_ddot": 0,
        "tle_line1": "1 29601U 06052A   25343.95494637  .00000003  00000+0  00000+0 0  9996",
        "tle_line2": "2 29601  54.9712 221.5087 0087752  87.4060 273.6761  2.00573319139619"
      },
      "geometry": {
        "type": "Point",
        "coordinates": [
          -177.8498305184776,
          -42.108224833270064
        ]
      }
    },
    {
      "type": "Feature",
      "properties": {
        "norad_id": 32260,
        "name": "GPS BIIRM-4 (PRN 15)",
        "group": "gps-ops",
        "lat": 53.7549568606892,
        "lon": 170.6493014811122,
        "alt_km": 19740.15978934912,
        "timestamp": "2025-12-11T08:58:27.382018+00:00",
        "meta_object_name": "GPS BIIRM-4 (PRN 15)",
        "meta_object_id": "2007-047A",
        "meta_epoch": "2025-12-10T06:15:19.310688",
        "meta_mean_motion": 2.00564571,
        "meta_eccentricity": 0.0164232,
        "meta_inclination": 53.9536,
        "meta_ra_of_asc_node": 87.861,
        "meta_arg_of_pericenter": 85.2178,
        "meta_mean_anomaly": 276.6503,
        "meta_ephemeris_type": 0,
        "meta_classification_type": "U",
        "meta_norad_cat_id": 32260,
        "meta_element_set_no": 999,
        "meta_rev_at_epoch": 13302,
        "meta_bstar": 0,
        "meta_mean_motion_dot": -1.7e-07,
        "meta_mean_motion_ddot": 0,
        "tle_line1": "1 32260U 07047A   25344.26064017 -.00000017  00000+0  00000+0 0  9992",
        "tle_line2": "2 32260  53.9536  87.8610 0164232  85.2178 276.6503  2.00564571133023"
      },
      "geometry": {
        "type": "Point",
        "coordinates": [
          170.6493014811122,
          53.7549568606892
        ]
      }
    },
    {
      "type": "Feature",
      "properties": {
        "norad_id": 32384,
        "name": "GPS BIIRM-5 (PRN 29)",
        "group": "gps-ops",
        "lat": -28.265301313455865,
        "lon": 123.63148517606122,
        "alt_km": 20132.543833455336,
        "timestamp": "2025-12-11T08:58:27.382030+00:00",
        "meta_object_name": "GPS BIIRM-5 (PRN 29)",
        "meta_object_id": "2007-062A",
        "meta_epoch": "2025-12-10T07:58:35.592096",
        "meta_mean_motion": 2.00577123,
        "meta_eccentricity": 0.00322309,
        "meta_inclination": 55.1843,
        "meta_ra_of_asc_node": 281.7425,
        "meta_arg_of_pericenter": 162.5309,
        "meta_mean_anomaly": 20.2379,
        "meta_ephemeris_type": 0,
        "meta_classification_type": "U",
        "meta_norad_cat_id": 32384,
        "meta_element_set_no": 999,
        "meta_rev_at_epoch": 13172,
        "meta_bstar": 0,
        "meta_mean_motion_dot": -6.2e-07,
        "meta_mean_motion_ddot": 0,
        "tle_line1": "1 32384U 07062A   25344.33235639 -.00000062  00000+0  00000+0 0  9994",
        "tle_line2": "2 32384  55.1843 281.7425 0032230 162.5309  20.2379  2.00577123131727"
      },
      "geometry": {
        "type": "Point",
        "coordinates": [
          123.63148517606122,
          -28.265301313455865
        ]
      }
    },
    {
      "type": "Feature",
      "properties": {
        "norad_id": 32711,
        "name": "GPS BIIRM-6 (PRN 07)",
        "group": "gps-ops",
        "lat": 33.61650490563196,
        "lon": -50.940185093301224,
        "alt_km": 20332.867437829365,
        "timestamp": "2025-12-11T08:58:27.382042+00:00",
        "meta_object_name": "GPS BIIRM-6 (PRN 07)",
        "meta_object_id": "2008-012A",
        "meta_epoch": "2025-12-10T16:18:30.026016",
        "meta_mean_motion": 2.00565518,
        "meta_eccentricity": 0.0202357,
        "meta_inclination": 54.4769,
        "meta_ra_of_asc_node": 157.4551,
        "meta_arg_of_pericenter": 244.9238,
        "meta_mean_anomaly": 112.9713,
        "meta_ephemeris_type": 0,
        "meta_classification_type": "U",
        "meta_norad_cat_id": 32711,
        "meta_element_set_no": 999,
        "meta_rev_at_epoch": 12997,
        "meta_bstar": 0,
        "meta_mean_motion_dot": 7.9e-07,
        "meta_mean_motion_ddot": 0,
        "tle_line1": "1 32711U 08012A   25344.67951419  .00000079  00000+0  00000+0 0  9999",
        "tle_line2": "2 32711  54.4769 157.4551 0202357 244.9238 112.9713  2.00565518129974"
      },
      "geometry": {
        "type": "Point",
        "coordinates": [
          -50.940185093301224,
          33.61650490563196
        ]
      }
    },
    {
      "type": "Feature",
      "properties": {
        "norad_id": 35752,
        "name": "GPS BIIRM-8 (PRN 05)",
        "group": "gps-ops",
        "lat": 16.583630005789487,
        "lon": -156.69479798947947,
        "alt_km": 20150.75128243355,
        "timestamp": "2025-12-11T08:58:27.382067+00:00",
        "meta_object_name": "GPS BIIRM-8 (PRN 05)",
        "meta_object_id": "2009-043A",
        "meta_epoch": "2025-12-10T15:39:24.141600",
        "meta_mean_motion": 2.0056577,
        "meta_eccentricity": 0.0051863,
        "meta_inclination": 56.0896,
        "meta_ra_of_asc_node": 34.8654,
        "meta_arg_of_pericenter": 81.9471,
        "meta_mean_anomaly": 276.3471,
        "meta_ephemeris_type": 0,
        "meta_classification_type": "U",
        "meta_norad_cat_id": 35752,
        "meta_element_set_no": 999,
        "meta_rev_at_epoch": 11957,
        "meta_bstar": 0,
        "meta_mean_motion_dot": -9.3e-07,
        "meta_mean_motion_ddot": 0,
        "tle_line1": "1 35752U 09043A   25344.65236275 -.00000093  00000+0  00000+0 0  9993",
        "tle_line2": "2 35752  56.0896  34.8654 0051863  81.9471 276.3471  2.00565770119576"
      },
      "geometry": {
        "type": "Point",
        "coordinates": [
          -156.69479798947947,
          16.583630005789487
        ]
      }
    },
    {
      "type": "Feature",
      "properties": {
        "norad_id": 36585,
        "name": "GPS BIIF-1  (PRN 25)",
        "group": "gps-ops",
        "lat": -53.72093637084468,
        "lon": 137.88842527735278,
        "alt_km": 20472.092280726516,
        "timestamp": "2025-12-11T08:58:27.382088+00:00",
        "meta_object_name": "GPS BIIF-1  (PRN 25)",
        "meta_object_id": "2010-022A",
        "meta_epoch": "2025-12-11T05:47:33.116064",
        "meta_mean_motion": 2.00553131,
        "meta_eccentricity": 0.0126048,
        "meta_inclination": 54.3003,
        "meta_ra_of_asc_node": 216.1344,
        "meta_arg_of_pericenter": 65.0548,
        "meta_mean_anomaly": 116.9691,
        "meta_ephemeris_type": 0,
        "meta_classification_type": "U",
        "meta_norad_cat_id": 36585,
        "meta_element_set_no": 999,
        "meta_rev_at_epoch": 11382,
        "meta_bstar": 0,
        "meta_mean_motion_dot": 1.3e-07,
        "meta_mean_motion_ddot": 0,
        "tle_line1": "1 36585U 10022A   25345.24135551  .00000013  00000+0  00000+0 0  9999",
        "tle_line2": "2 36585  54.3003 216.1344 0126048  65.0548 116.9691  2.00553131113822"
      },
      "geometry": {
        "type": "Point",
        "coordinates": [
          137.88842527735278,
          -53.72093637084468
        ]
      }
    }
  ]
}